#dV2019  9 29  0  0  0.00000000    8640 U+u   IGS14 FIT TUD 
## 2073      0.00000000    10.00000000 58755 0.0000000000000
+    1   L47  0  0  0  0  0  0  0  0  0  0  0  0  0  0  0  0                          
+          0  0  0  0  0  0  0  0  0  0  0  0  0  0  0  0  0                          
+          0  0  0  0  0  0  0  0  0  0  0  0  0  0  0  0  0                          
+          0  0  0  0  0  0  0  0  0  0  0  0  0  0  0  0  0                          
+          0  0  0  0  0  0  0  0  0  0  0  0  0  0  0  0  0                          
++         0  0  0  0  0  0  0  0  0  0  0  0  0  0  0  0  0                          
++         0  0  0  0  0  0  0  0  0  0  0  0  0  0  0  0  0                          
++         0  0  0  0  0  0  0  0  0  0  0  0  0  0  0  0  0                          
++         0  0  0  0  0  0  0  0  0  0  0  0  0  0  0  0  0                          
++         0  0  0  0  0  0  0  0  0  0  0  0  0  0  0  0  0                          
%c M  cc GPS ccc cccc cccc cccc cccc ccccc ccccc ccccc ccccc                          
%c cc cc ccc ccc cccc cccc cccc cccc ccccc ccccc ccccc ccccc                          
%f  0.0000000  0.000000000  0.00000000000  0.000000000000000                          
%f  0.0000000  0.000000000  0.00000000000  0.000000000000000                          
%i    0    0    0    0      0      0      0      0         0                          
%i    0    0    0    0      0      0      0      0         0                          
/* Created by: RDOD_AR_WGT                                                            
/* Setup     : SWARMA.19.272_RDOD_AR.inp                                              
/* Executed  : 10-May-2021 20:57 UTC, by swarmgen@euclid2.lr.tudelft.nl               
/*                                                                                    
*  2019 09 29 21 38 00.00000000                             
PL47  1065.2541198  4298.3382165 -5188.2443626 999999.999999
VL47-16080.9679011-55685.2229720-49475.4133429 999999.999999
*  2019 09 29 21 38 10.00000000                             
PL47  1049.0663314  4242.3978818 -5237.3928986 999999.999999
VL47-16294.3941243-56194.2237238-48820.6395126 999999.999999
*  2019 09 29 21 38 20.00000000                             
PL47  1032.6657673  4185.9522248 -5285.8836174 999999.999999
VL47-16506.5131422-56695.8573555-48159.7928154 999999.999999
*  2019 09 29 21 38 30.00000000                             
PL47  1016.0537531  4129.0086425 -5333.7104878 999999.999999
VL47-16717.2881600-57190.0647946-47492.9569461 999999.999999
*  2019 09 29 21 38 40.00000000                             
PL47   999.2316512  4071.5745900 -5380.8675630 999999.999999
VL47-16926.6822561-57676.7880199-46820.2163292 999999.999999
*  2019 09 29 21 38 50.00000000                             
PL47   982.2008610  4013.6575802 -5427.3489806 999999.999999
VL47-17134.6591591-58155.9698980-46141.6561104 999999.999999
*  2019 09 29 21 39 00.00000000                             
PL47   964.9628175  3955.2651826 -5473.1489640 999999.999999
VL47-17341.1823713-58627.5544266-45457.3621342 999999.999999
*  2019 09 29 21 39 10.00000000                             
PL47   947.5189930  3896.4050221 -5518.2618225 999999.999999
VL47-17546.2151838-59091.4867507-44767.4209063 999999.999999
*  2019 09 29 21 39 20.00000000                             
PL47   929.8708959  3837.0847779 -5562.6819524 999999.999999
VL47-17749.7215681-59547.7129460-44071.9195536 999999.999999
*  2019 09 29 21 39 30.00000000                             
PL47   912.0200708  3777.3121825 -5606.4038374 999999.999999
VL47-17951.6653943-59996.1801961-43370.9457926 999999.999999
*  2019 09 29 21 39 40.00000000                             
PL47   893.9680981  3717.0950210 -5649.4220493 999999.999999
VL47-18152.0104639-60436.8367621-42664.5879150 999999.999999
*  2019 09 29 21 39 50.00000000                             
PL47   875.7165946  3656.4411295 -5691.7312482 999999.999999
VL47-18350.7212053-60869.6317989-41952.9347869 999999.999999
*  2019 09 29 21 40 00.00000000                             
PL47   857.2672124  3595.3583946 -5733.3261836 999999.999999
VL47-18547.7618607-61294.5155400-41236.0758595 999999.999999
*  2019 09 29 21 40 10.00000000                             
PL47   838.6216396  3533.8547518 -5774.2016946 999999.999999
VL47-18743.0964947-61711.4393021-40514.1011792 999999.999999
*  2019 09 29 21 40 20.00000000                             
PL47   819.7815998  3471.9381852 -5814.3527109 999999.999999
VL47-18936.6898149-62120.3553035-39787.1013963 999999.999999
*  2019 09 29 21 40 30.00000000                             
PL47   800.7488522  3409.6167260 -5853.7742528 999999.999999
VL47-19128.5063993-62521.2168724-39055.1677648 999999.999999
*  2019 09 29 21 40 40.00000000                             
PL47   781.5251910  3346.8984515 -5892.4614324 999999.999999
VL47-19318.5110789-62913.9783837-38318.3921271 999999.999999
*  2019 09 29 21 40 50.00000000                             
PL47   762.1124457  3283.7914841 -5930.4094539 999999.999999
VL47-19506.6686148-63298.5953552-37576.8668856 999999.999999
*  2019 09 29 21 41 00.00000000                             
PL47   742.5124810  3220.3039901 -5967.6136140 999999.999999
VL47-19692.9443949-63675.0242939-36830.6849720 999999.999999
*  2019 09 29 21 41 10.00000000                             
PL47   722.7271958  3156.4441790 -6004.0693027 999999.999999
VL47-19877.3037187-64043.2228591-36079.9398215 999999.999999
*  2019 09 29 21 41 20.00000000                             
PL47   702.7585240  3092.2203016 -6039.7720038 999999.999999
VL47-20059.7118100-64403.1498512-35324.7253536 999999.999999
*  2019 09 29 21 41 30.00000000                             
PL47   682.6084339  3027.6406499 -6074.7172951 999999.999999
VL47-20240.1345349-64754.7650388-34565.1359610 999999.999999
*  2019 09 29 21 41 40.00000000                             
PL47   662.2789281  2962.7135552 -6108.9008490 999999.999999
VL47-20418.5377725-65098.0293012-33801.2665001 999999.999999
*  2019 09 29 21 41 50.00000000                             
PL47   641.7720429  2897.4473876 -6142.3184332 999999.999999
VL47-20594.8874538-65432.9046172-33033.2122808 999999.999999
*  2019 09 29 21 42 00.00000000                             
PL47   621.0898488  2831.8505546 -6174.9659106 999999.999999
VL47-20769.1501009-65759.3539459-32261.0690528 999999.999999
*  2019 09 29 21 42 10.00000000                             
PL47   600.2344496  2765.9315004 -6206.8392403 999999.999999
VL47-20941.2921968-66077.3413582-31484.9329930 999999.999999
*  2019 09 29 21 42 20.00000000                             
PL47   579.2079825  2699.6987042 -6237.9344778 999999.999999
VL47-21111.2801895-66386.8320251-30704.9007022 999999.999999
*  2019 09 29 21 42 30.00000000                             
PL47   558.0126182  2633.1606799 -6268.2477753 999999.999999
VL47-21279.0811291-66687.7920731-29921.0692125 999999.999999
*  2019 09 29 21 42 40.00000000                             
PL47   536.6505602  2566.3259745 -6297.7753823 999999.999999
VL47-21444.6620666-66980.1887256-29133.5359970 999999.999999
*  2019 09 29 21 42 50.00000000                             
PL47   515.1240450  2499.2031675 -6326.5136461 999999.999999
VL47-21607.9903447-67263.9902576-28342.3989699 999999.999999
*  2019 09 29 21 43 00.00000000                             
PL47   493.4353413  2431.8008693 -6354.4590118 999999.999999
VL47-21769.0333510-67539.1660624-27547.7564772 999999.999999
*  2019 09 29 21 43 10.00000000                             
PL47   471.5867507  2364.1277205 -6381.6080234 999999.999999
VL47-21927.7590264-67805.6865581-26749.7072847 999999.999999
*  2019 09 29 21 43 20.00000000                             
PL47   449.5806064  2296.1923907 -6407.9573239 999999.999999
VL47-22084.1353339-68063.5233012-25948.3505738 999999.999999
*  2019 09 29 21 43 30.00000000                             
PL47   427.4192738  2228.0035776 -6433.5036553 999999.999999
VL47-22238.1302742-68312.6490000-25143.7859386 999999.999999
*  2019 09 29 21 43 40.00000000                             
PL47   405.1051501  2159.5700052 -6458.2438597 999999.999999
VL47-22389.7124249-68553.0374304-24336.1133720 999999.999999
*  2019 09 29 21 43 50.00000000                             
PL47   382.6406637  2090.9004235 -6482.1748795 999999.999999
VL47-22538.8504850-68784.6635504-23525.4332353 999999.999999
*  2019 09 29 21 44 00.00000000                             
PL47   360.0282742  2022.0036068 -6505.2937573 999999.999999
VL47-22685.5133232-69007.5034910-22711.8462179 999999.999999
*  2019 09 29 21 44 10.00000000                             
PL47   337.2704723  1952.8883528 -6527.5976366 999999.999999
VL47-22829.6703550-69221.5344811-21895.4533007 999999.999999
*  2019 09 29 21 44 20.00000000                             
PL47   314.3697789  1883.5634814 -6549.0837623 999999.999999
VL47-22971.2911053-69426.7349067-21076.3557333 999999.999999
*  2019 09 29 21 44 30.00000000                             
PL47   291.3287456  1814.0378334 -6569.7494804 999999.999999
VL47-23110.3452131-69623.0842941-20254.6550222 999999.999999
*  2019 09 29 21 44 40.00000000                             
PL47   268.1499540  1744.3202696 -6589.5922385 999999.999999
VL47-23246.8028691-69810.5632257-19430.4529222 999999.999999
*  2019 09 29 21 44 50.00000000                             
PL47   244.8360153  1674.4196699 -6608.6095864 999999.999999
VL47-23380.6343957-69989.1534066-18603.8514275 999999.999999
*  2019 09 29 21 45 00.00000000                             
PL47   221.3895704  1604.3449315 -6626.7991757 999999.999999
VL47-23511.8104451-70158.8376202-17774.9527619 999999.999999
*  2019 09 29 21 45 10.00000000                             
PL47   197.8132893  1534.1049687 -6644.1587604 999999.999999
VL47-23640.3018457-70319.5997319-16943.8593761 999999.999999
EOF                                                         
